{
  "norad_id": 64208,
  "name": "STARLINK-34327",
  "history": [
    {
      "epoch": "2026-03-28T22:04:05.384064Z",
      "apogee_km": 476.00027520295407,
      "perigee_km": 474.45963831107565,
      "latitude_deg": 3.6641574696061997e-05,
      "longitude_deg": 152.66225054740292,
      "height_km": 475.7579206223428,
      "semi_major_axis_km": 6853.366956757015,
      "eccentricity": 0.0001124,
      "inclination_deg": 53.1593,
      "raan_deg": 310.0177,
      "arg_perigee_deg": 61.258,
      "mean_anomaly_deg": 298.8534,
      "mean_motion_rev_day": 15.30195014
    }
  ]
}